[{"OBJECT_NAME":"OBJECT E","OBJECT_ID":"2024-174E","EPOCH":"2026-03-09T23:40:24.424320","MEAN_MOTION":15.26241811,"ECCENTRICITY":0.00122518,"INCLINATION":97.4515,"RA_OF_ASC_NODE":80.1669,"ARG_OF_PERICENTER":217.7524,"MEAN_ANOMALY":142.2856,"EPHEMERIS_TYPE":0,"CLASSIFICATION_TYPE":"U","NORAD_CAT_ID":61242,"ELEMENT_SET_NO":999,"REV_AT_EPOCH":8070,"BSTAR":0.00031155901,"MEAN_MOTION_DOT":8.013e-5,"MEAN_MOTION_DDOT":0},{"OBJECT_NAME":"INNOSAT 16 (RS92S7)","OBJECT_ID":"2025-155C","EPOCH":"2026-03-09T21:55:33.190176","MEAN_MOTION":15.24188147,"ECCENTRICITY":0.00110314,"INCLINATION":97.4467,"RA_OF_ASC_NODE":36.5104,"ARG_OF_PERICENTER":164.72,"MEAN_ANOMALY":195.4373,"EPHEMERIS_TYPE":0,"CLASSIFICATION_TYPE":"U","NORAD_CAT_ID":64878,"ELEMENT_SET_NO":999,"REV_AT_EPOCH":6554,"BSTAR":0.00039576165,"MEAN_MOTION_DOT":9.587e-5,"MEAN_MOTION_DDOT":0}]
